NORAD_CAT_ID,OBJECT_NAME,OBJECT_TYPE,EPOCH,MEAN_MOTION,ECCENTRICITY,INCLINATION,RA_OF_ASC_NODE,ARG_OF_PERICENTER,MEAN_ANOMALY,BSTAR,MEAN_MOTION_DOT,MEAN_MOTION_DDOT,TLE_LINE0,TLE_LINE1,TLE_LINE2,SEMIMAJOR_AXIS,PERIOD,APOGEE,PERIGEE,DECAYED
53019.0,STARLINK-4282,PAYLOAD,2024-05-28 03:09:51,15.0884167,0.0001685,53.2168,124.5887,78.0862,282.0319,3.149e-05,2.13e-06,0.0,0 STARLINK-4282,1 53019U 22076AK  24149.13184239  .00000213  00000-0  31490-4 0  9993,2 53019  53.2168 124.5887 0001685  78.0862 282.0319 15.08841670105248,6917.875,95.437,540.906,538.575,0.0
53019.0,STARLINK-4282,PAYLOAD,2024-05-28 22:14:28,15.08867452,0.0001337,53.2176,121.0209,91.8737,268.2408,-0.00041845,-6.946e-05,0.0,0 STARLINK-4282,1 53019U 22076AK  24149.92672414 -.00006946  00000-0 -41845-3 0  9992,2 53019  53.2176 121.0209 0001337  91.8737 268.2408 15.08867452104896,6917.796,95.436,540.586,538.737,0.0
53019.0,STARLINK-4282,PAYLOAD,2024-05-29 04:36:01,15.08837474,0.0001482,53.2172,119.8306,88.5167,271.5995,5.5629e-06,-1.99e-06,0.0,0 STARLINK-4282,1 53019U 22076AK  24150.19168540 -.00000199  00000-0  55629-5 0  9993,2 53019  53.2172 119.8306 0001482  88.5167 271.5995 15.08837474105403,6917.888,95.438,540.778,538.728,0.0
53019.0,STARLINK-4282,PAYLOAD,2024-05-29 07:46:47,15.08838454,0.0001448,53.217,119.2352,91.3742,268.7416,1.0446e-05,-1.22e-06,0.0,0 STARLINK-4282,1 53019U 22076AK  24150.32416443 -.00000122  00000-0  10446-4 0  9999,2 53019  53.2170 119.2352 0001448  91.3742 268.7416 15.08838454104953,6917.885,95.438,540.752,538.748,0.0
53019.0,STARLINK-4282,PAYLOAD,2024-05-30 07:37:34,15.08845593,0.0001456,53.2172,114.7739,97.4047,262.7111,3.4974e-05,2.69e-06,0.0,0 STARLINK-4282,1 53019U 22076AK  24151.31775912  .00000269  00000-0  34974-4 0  9991,2 53019  53.2172 114.7739 0001456  97.4047 262.7111 15.08845593105575,6917.863,95.437,540.736,538.721,0.0
53019.0,STARLINK-4282,PAYLOAD,2024-05-31 04:17:35,15.08835621,0.0001491,53.2173,110.9075,98.8413,261.2748,2.3431e-05,8.5e-07,0.0,0 STARLINK-4282,1 53019U 22076AK  24152.17888783  .00000085  00000-0  23431-4 0  9999,2 53019  53.2173 110.9075 0001491  98.8413 261.2748 15.08835621105704,6917.894,95.438,540.79,538.727,0.0
53019.0,STARLINK-4282,PAYLOAD,2024-05-31 20:11:27,15.08836457,0.0001375,53.2171,107.9353,87.9228,272.1922,1.8138e-05,1e-08,0.0,0 STARLINK-4282,1 53019U 22076AK  24152.84128905  .00000001  00000-0  18138-4 0  9992,2 53019  53.2171 107.9353 0001375  87.9228 272.1922 15.08836457105333,6917.891,95.438,540.707,538.805,0.0
53019.0,STARLINK-4282,PAYLOAD,2024-06-01 04:08:22,15.08843621,0.0001335,53.2172,106.4494,91.2789,268.8356,1.8575e-05,8e-08,0.0,0 STARLINK-4282,1 53019U 22076AK  24153.17248455  .00000008  00000-0  18575-4 0  9994,2 53019  53.2172 106.4494 0001335  91.2789 268.8356 15.08843621105851,6917.869,95.437,540.658,538.811,0.0
53019.0,STARLINK-4282,PAYLOAD,2024-06-01 13:40:41,15.08841446,0.0001326,53.2173,104.6652,90.6427,269.4717,-1.8126e-05,-5.76e-06,0.0,0 STARLINK-4282,1 53019U 22076AK  24153.56992623 -.00000576  00000-0 -18126-4 0  9994,2 53019  53.2173 104.6652 0001326  90.6427 269.4717 15.08841446105446,6917.876,95.437,540.658,538.824,0.0
53019.0,STARLINK-4282,PAYLOAD,2024-06-01 20:02:14,15.08833052,0.0001392,53.2181,103.4781,91.5306,268.5845,5.6733e-05,6.15e-06,0.0,0 STARLINK-4282,1 53019U 22076AK  24153.83489117  .00000615  00000-0  56733-4 0  9991,2 53019  53.2181 103.4781 0001392  91.5306 268.5845 15.08833052105956,6917.902,95.438,540.73,538.804,0.0
53019.0,STARLINK-4282,PAYLOAD,2024-06-02 13:31:29,15.08833162,0.0001653,53.2192,100.2046,84.8054,275.3127,1.5476e-05,-4.2e-07,0.0,0 STARLINK-4282,1 53019U 22076AK  24154.56353755 -.00000042  00000-0  15476-4 0  9994,2 53019  53.2192 100.2046 0001653  84.8054 275.3127 15.08833162105593,6917.901,95.438,540.91,538.623,0.0
53019.0,STARLINK-4282,PAYLOAD,2024-06-03 05:25:20,15.08847085,0.000137,53.218,97.2308,86.6782,273.4367,6.9676e-05,8.21e-06,0.0,0 STARLINK-4282,1 53019U 22076AK  24155.22592718  .00000821  00000-0  69676-4 0  9997,2 53019  53.2180  97.2308 0001370  86.6782 273.4367 15.08847085106168,6917.859,95.437,540.671,538.776,0.0
53019.0,STARLINK-4282,PAYLOAD,2024-06-03 13:22:15,15.08847245,0.0001316,53.2177,95.7424,83.2887,276.8255,-4.9135e-06,-3.66e-06,0.0,0 STARLINK-4282,1 53019U 22076AK  24155.55712860 -.00000366  00000-0 -49135-5 0  9990,2 53019  53.2177  95.7424 0001316  83.2887 276.8255 15.08847245105749,6917.858,95.437,540.634,538.813,0.0
53019.0,STARLINK-4282,PAYLOAD,2024-06-04 02:05:21,15.08836714,0.0001321,53.2174,93.3646,87.1527,272.9616,0.00011653,1.567e-05,0.0,0 STARLINK-4282,1 53019U 22076AK  24156.08705287  .00001567  00000-0  11653-3 0  9998,2 53019  53.2174  93.3646 0001321  87.1527 272.9616 15.08836714106294,6917.89,95.438,540.669,538.842,0.0
53019.0,STARLINK-4282,PAYLOAD,2024-06-04 13:13:02,15.08847544,0.000133,53.217,91.2831,89.7048,270.4096,0.00012261,1.664e-05,0.0,0 STARLINK-4282,1 53019U 22076AK  24156.55072507  .00001664  00000-0  12261-3 0  9996,2 53019  53.2170  91.2831 0001330  89.7048 270.4096 15.08847544105892,6917.857,95.437,540.642,538.802,0.0
53019.0,STARLINK-4282,PAYLOAD,2024-06-05 13:03:49,15.08842785,0.0001202,53.2191,86.8197,109.6512,250.461,1.3849e-05,-6.7e-07,0.0,0 STARLINK-4282,1 53019U 22076AK  24157.54432735 -.00000067  00000-0  13849-4 0  9990,2 53019  53.2191  86.8197 0001202 109.6512 250.4610 15.08842785106046,6917.872,95.437,540.568,538.905,0.0
53019.0,STARLINK-4282,PAYLOAD,2024-06-06 01:46:55,15.08834916,0.0001719,53.2163,84.4434,92.9221,267.1968,-1.9921e-05,-6.05e-06,0.0,0 STARLINK-4282,1 53019U 22076AK  24158.07425586 -.00000605  00000-0 -19921-4 0  9991,2 53019  53.2163  84.4434 0001719  92.9221 267.1968 15.08834916106595,6917.896,95.438,540.95,538.572,0.0
53019.0,STARLINK-4282,PAYLOAD,2024-06-07 19:06:58,15.08822251,0.0001286,53.2199,76.7112,80.8426,279.2712,3.1941e-05,2.2e-06,0.0,0 STARLINK-4282,1 53019U 22076AK  24159.79650578  .00000220  00000-0  31941-4 0  9999,2 53019  53.2199  76.7112 0001286  80.8426 279.2712 15.08822251106852,6917.935,95.439,540.689,538.91,0.0
53019.0,STARLINK-4282,PAYLOAD,2024-06-07 22:17:43,15.08834314,0.0001446,53.2194,76.1168,94.6179,265.4978,0.00013518,1.864e-05,0.0,0 STARLINK-4282,1 53019U 22076AK  24159.92897654  .00001864  00000-0  13518-3 0  9996,2 53019  53.2194  76.1168 0001446  94.6179 265.4978 15.08834314106403,6917.898,95.438,540.763,538.762,0.0
53019.0,STARLINK-4282,PAYLOAD,2024-06-08 01:28:29,15.08838594,0.0001227,53.2174,75.5231,78.1316,281.9814,0.00017667,2.525e-05,0.0,0 STARLINK-4282,1 53019U 22076AK  24160.06145469  .00002525  00000-0  17667-3 0  9997,2 53019  53.2174  75.5231 0001227  78.1316 281.9814 15.08838594106891,6917.885,95.438,540.599,538.901,0.0
53019.0,STARLINK-4282,PAYLOAD,2024-06-08 11:00:48,15.08838834,0.0001073,53.2165,73.739,76.9386,283.1726,5.4113e-05,5.73e-06,0.0,0 STARLINK-4282,1 53019U 22076AK  24160.45889707  .00000573  00000-0  54113-4 0  9999,2 53019  53.2165  73.7390 0001073  76.9386 283.1726 15.08838834106487,6917.884,95.438,540.491,539.007,0.0
53019.0,STARLINK-4282,PAYLOAD,2024-06-08 22:08:31,15.08829603,0.0002215,53.2177,71.6584,75.0708,285.053,-1.5697e-06,-3.13e-06,0.0,0 STARLINK-4282,1 53019U 22076AK  24160.92259007 -.00000313  00000-0 -15697-5 0  9994,2 53019  53.2177  71.6584 0002215  75.0708 285.0530 15.08829603106555,6917.912,95.438,541.309,538.245,0.0
53019.0,STARLINK-4282,PAYLOAD,2024-06-09 04:30:03,15.08844177,0.0001619,53.2173,70.4679,85.3869,274.7309,0.00010904,1.448e-05,0.0,0 STARLINK-4282,1 53019U 22076AK  24161.18753657  .00001448  00000-0  10904-3 0  9995,2 53019  53.2173  70.4679 0001619  85.3869 274.7309 15.08844177107061,6917.868,95.437,540.853,538.613,0.0
53019.0,STARLINK-4282,PAYLOAD,2024-06-09 21:59:18,15.08826129,9.59e-05,53.2158,67.1965,81.4269,278.6832,9.9682e-05,1.298e-05,0.0,0 STARLINK-4282,1 53019U 22076AK  24161.91618945  .00001298  00000-0  99682-4 0  9990,2 53019  53.2158  67.1965 0000959  81.4269 278.6832 15.08826129106703,6917.923,95.438,540.451,539.124,0.0
53019.0,STARLINK-4282,PAYLOAD,2024-06-10 02:45:27,15.08839266,0.0001378,53.2184,66.3045,88.7996,271.3154,6.8551e-05,8.03e-06,0.0,0 STARLINK-4282,1 53019U 22076AK  24162.11490381  .00000803  00000-0  68551-4 0  9997,2 53019  53.2184  66.3045 0001378  88.7996 271.3154 15.08839266107204,6917.883,95.438,540.701,538.794,0.0
53019.0,STARLINK-4282,PAYLOAD,2024-06-10 23:25:28,15.08836481,0.0001155,53.2182,62.4378,93.4607,266.6518,0.00013502,1.861e-05,0.0,0 STARLINK-4282,1 53019U 22076AK  24162.97602460  .00001861  00000-0  13502-3 0  9994,2 53019  53.2182  62.4378 0001155  93.4607 266.6518 15.08836481106861,6917.891,95.438,540.555,538.957,0.0
53019.0,STARLINK-4282,PAYLOAD,2024-06-11 02:36:14,15.08849323,0.0001214,53.2171,61.8445,93.6294,266.4837,0.00010307,1.353e-05,0.0,0 STARLINK-4282,1 53019U 22076AK  24163.10849654  .00001353  00000-0  10307-3 0  9994,2 53019  53.2171  61.8445 0001214  93.6294 266.4837 15.08849323107353,6917.852,95.437,540.557,538.877,0.0
53019.0,STARLINK-4282,PAYLOAD,2024-06-11 10:33:09,15.08847442,0.0001281,53.2175,60.3582,93.1279,266.986,6.1408e-05,6.9e-06,0.0,0 STARLINK-4282,1 53019U 22076AK  24163.43969770  .00000690  00000-0  61408-4 0  9994,2 53019  53.2175  60.3582 0001281  93.1279 266.9860 15.08847442106939,6917.858,95.437,540.609,538.836,0.0
53019.0,STARLINK-4282,PAYLOAD,2024-06-11 23:16:14,15.08852458,0.0001169,53.2173,57.9775,103.522,256.5903,7.4617e-05,9e-06,0.0,0 STARLINK-4282,1 53019U 22076AK  24163.96961336  .00000900  00000-0  74617-4 0  9992,2 53019  53.2173  57.9775 0001169 103.5220 256.5903 15.08852458107016,6917.842,95.437,540.516,538.899,0.0
53019.0,STARLINK-4282,PAYLOAD,2024-06-12 10:23:56,15.0884534,0.0001033,53.2159,55.8967,89.8482,270.2628,2.4966e-05,1.1e-06,0.0,0 STARLINK-4282,1 53019U 22076AK  24164.43329694  .00000110  00000-0  24966-4 0  9995,2 53019  53.2159  55.8967 0001033  89.8482 270.2628 15.08845340107554,6917.864,95.437,540.444,539.014,0.0
